ONEWEB-0578             
1 56067U 23043X   25346.28452702 -.00000237  00000+0 -60559-3 0  9997
2 56067  87.9218 281.2524 0001600  78.8188 281.3126 13.21825084133545
ONEWEB-0579             
1 56068U 23043Y   25346.27467307 -.00000273  00000+0 -69144-3 0  9993
2 56068  87.9221 281.2419 0002048  72.6441 287.4917 13.21829244133552
ONEWEB-0581             
1 56069U 23043Z   25346.27374081 -.00000021  00000+0 -89844-4 0  9991
2 56069  87.9043 266.0019 0001966  84.3867 275.7488 13.16595346134362
ONEWEB-0609             
1 56070U 23043AA  25346.23485201  .00000139  00000+0  33436-3 0  9999
2 56070  87.8993 296.5230 0001761  73.8587 286.2738 13.15549072131855
ONEWEB-0613             
1 56071U 23043AB  25346.23009462  .00000091  00000+0  20869-3 0  9994
2 56071  87.8993 296.5359 0001957  72.4987 287.6358 13.15549394131854
ONEWEB-0630             
1 56072U 23043AC  25346.30139341  .00000123  00000+0  29371-3 0  9996
2 56072  87.8991 296.4931 0001985  72.6420 287.4927 13.15550135131858
ONEWEB-0632             
1 56073U 23043AD  25346.29663342  .00000110  00000+0  25793-3 0  9998
2 56073  87.8988 296.5120 0001954  82.9234 277.2118 13.15549882131855
ONEWEB-0633             
1 56074U 23043AE  25346.29030501 -.00000043  00000+0 -14887-3 0  9993
2 56074  87.8987 296.4765 0001973  67.5905 292.5434 13.15549059131839
